OBJECT_NAME,OBJECT_ID,EPOCH,MEAN_MOTION,ECCENTRICITY,INCLINATION,RA_OF_ASC_NODE,ARG_OF_PERICENTER,MEAN_ANOMALY,EPHEMERIS_TYPE,CLASSIFICATION_TYPE,NORAD_CAT_ID,ELEMENT_SET_NO,REV_AT_EPOCH,BSTAR,MEAN_MOTION_DOT,MEAN_MOTION_DDOT
RANGE-A,2018-099R,2026-06-07T22:06:27.692640,15.13311859,.0010848,97.3972,201.7717,28.6539,331.5286,0,U,43773,999,41109,.31273E-3,.5513E-4,0
SNUSAT-2,2018-099AA,2026-06-08T03:03:47.411712,15.21705028,.0009217,97.4064,212.6512,335.5764,24.5034,0,U,43782,999,41165,.37942E-3,.8532E-4,0
SNUGLITE,2018-099AC,2026-06-07T21:42:22.663008,15.26976294,.0001843,97.3872,213.2770,353.9215,6.2001,0,U,43784,999,41190,.47553E-3,.12529E-3,0
ITASAT,2018-099AE,2026-06-08T03:05:10.088736,15.18945561,.0013095,97.4031,210.8218,31.6283,328.5736,0,U,43786,999,41153,.35522E-3,.7372E-4,0
EAGLET-I,2018-099AJ,2026-06-08T02:58:28.434144,15.12873771,.0011623,97.4234,209.0328,25.6772,334.5034,0,U,43790,999,41096,.25743E-3,.4471E-4,0
ESEO,2018-099AL,2026-06-08T01:36:24.118848,15.04213271,.0012274,97.3966,196.8457,11.2332,348.9166,0,U,43792,999,41043,.13298E-3,.1792E-4,0
THEA,2018-099AQ,2026-06-08T03:21:45.105696,15.34709510,.0006026,97.4442,228.7464,323.6606,36.4227,0,U,43796,999,41130,.46238E-3,.15496E-3,0
ASTROCAST 0.1,2018-099AS,2026-06-08T03:42:04.601952,15.48940874,.0004426,97.4376,237.3738,237.9334,122.1488,0,U,43798,999,41303,.57694E-3,.31148E-3,0
JY1SAT (JO-97),2018-099AX,2026-06-08T03:44:58.799040,15.33366005,.0004245,97.4132,221.9612,308.5712,51.5149,0,U,43803,999,41224,.42915E-3,.13771E-3,0
SUOMI-100,2018-099AY,2026-06-08T02:31:48.801216,15.28214389,.0008583,97.4187,219.5337,317.3393,42.7179,0,U,43804,999,41203,.4752E-3,.13013E-3,0
CENTAURI-1,2018-099BD,2026-06-07T21:37:54.816960,15.16273607,.0014071,97.4222,210.8207,7.1954,352.9479,0,U,43809,999,41109,.33295E-3,.6395E-4,0
GLOBAL-2,2018-099BG,2026-06-08T01:18:21.276288,15.08618672,.0006086,97.3559,195.9477,171.3075,188.8260,0,U,43812,999,41053,.28148E-3,.4345E-4,0
SEAHAWK-1,2018-099BQ,2026-06-08T03:12:19.913184,15.22663237,.000756,97.3960,211.7579,352.4742,7.6379,0,U,43820,999,41115,.40796E-3,.944E-4,0
SAUDISAT 5A,2018-102A,2026-06-08T04:38:01.647168,15.27955033,.0010357,97.3070,220.9478,157.2045,202.9657,0,U,43831,999,41430,.20592E-3,.5552E-4,0
SAUDISAT 5B,2018-102C,2026-06-08T05:07:21.540000,15.28218511,.0010976,97.3177,224.0212,159.8540,200.3136,0,U,43833,999,41442,.21787E-3,.5927E-4,0
ISAT,2018-111D,2026-06-07T18:14:11.546304,15.63634562,.0002285,97.5889,93.2672,49.0004,311.1452,0,U,43879,999,40969,.91745E-3,.85884E-3,0
UWE-4,2018-111E,2026-06-07T18:20:33.843840,15.45534783,.0007278,97.5856,86.7246,18.3165,341.8344,0,U,43880,999,40932,.69481E-3,.33394E-3,0
D-STAR ONE (SPARROW),2018-111F,2026-06-08T02:21:58.639104,15.71864045,.0004854,97.6116,99.0929,99.4138,260.7673,0,U,43881,999,40994,.11517E-2,.151746E-2,0
JILIN-1 09,2019-005B,2026-06-08T03:56:03.954624,15.20435321,.0003719,97.4730,254.2045,112.4758,247.6872,0,U,43943,999,40777,.2077E-3,.4462E-4,0
JILIN-1 10,2019-005E,2026-06-08T03:23:19.662720,15.25625583,.0006859,97.4774,257.9467,318.0849,41.9863,0,U,43946,999,40793,.21469E-3,.5388E-4,0
EGYPTSAT-A (MISRSAT-A),2019-008A,2026-06-08T04:08:05.342784,14.72297880,.0001184,98.0088,224.0584,88.6244,271.5099,0,U,44047,999,39191,.1464E-3,.876E-5,0
EMISAT,2019-018A,2026-06-08T04:53:17.085408,14.43683363,.0017326,98.4644,218.0530,243.4338,116.5077,0,U,44078,999,37876,.86896E-4,.251E-5,0
JILIN-1 GAOFEN 3A,2019-032C,2026-06-08T03:43:25.944096,15.32435711,.0006368,44.9754,46.6379,252.7216,107.2972,0,U,44312,999,38645,.42197E-3,.13194E-3,0
WT 1B,2019-032G,2026-06-08T04:08:05.650368,15.27010462,.0009333,44.9729,110.1395,202.5736,157.4737,0,U,44316,999,38570,.39227E-3,.10324E-3,0
PROX-1,2019-036A,2026-06-07T18:02:21.058368,14.90390005,.0005354,23.9933,177.2711,281.8651,78.1248,0,U,44339,999,37206,.13165E-2,.1343E-3,0
NPSAT1,2019-036B,2026-06-07T23:33:21.415104,14.74502276,.0007989,23.9991,277.7113,103.5008,256.6378,0,U,44340,999,37113,.83373E-3,.5917E-4,0
FORMOSAT 7-3,2019-036E,2026-06-07T22:20:56.205312,15.09740932,.0001017,23.9987,242.2459,138.1967,221.8614,0,U,44343,999,38184,.28683E-3,.5097E-4,0
FORMOSAT 7-1,2019-036L,2026-06-08T02:41:19.535424,14.96467702,.000104,23.9977,93.5711,81.4827,278.5792,0,U,44349,999,38329,.23604E-3,.3048E-4,0
FORMOSAT 7-4,2019-036M,2026-06-07T08:01:24.720096,14.96458618,.0001523,23.9967,160.9233,83.3436,276.7238,0,U,44350,999,38259,.21931E-3,.2853E-4,0
