RANGE-A                 
1 43773U 18099R   26158.92115385  .00005513  00000+0  31273-3 0  9999
2 43773  97.3972 201.7717 0010848  28.6539 331.5286 15.13311859411092
SNUSAT-2                
1 43782U 18099AA  26159.12763208  .00008532  00000+0  37942-3 0  9998
2 43782  97.4064 212.6512 0009217 335.5764  24.5034 15.21705028411653
SNUGLITE                
1 43784U 18099AC  26158.90442897  .00012529  00000+0  47553-3 0  9993
2 43784  97.3872 213.2770 0001843 353.9215   6.2001 15.26976294411905
ITASAT                  
1 43786U 18099AE  26159.12858899  .00007372  00000+0  35522-3 0  9996
2 43786  97.4031 210.8218 0013095  31.6283 328.5736 15.18945561411530
EAGLET-I                
1 43790U 18099AJ  26159.12394021  .00004471  00000+0  25743-3 0  9994
2 43790  97.4234 209.0328 0011623  25.6772 334.5034 15.12873771410964
ESEO                    
1 43792U 18099AL  26159.06694582  .00001792  00000+0  13298-3 0  9999
2 43792  97.3966 196.8457 0012274  11.2332 348.9166 15.04213271410430
THEA                    
1 43796U 18099AQ  26159.14010539  .00015496  00000+0  46238-3 0  9992
2 43796  97.4442 228.7464 0006026 323.6606  36.4227 15.34709510411302
ASTROCAST 0.1           
1 43798U 18099AS  26159.15421993  .00031148  00000+0  57694-3 0  9995
2 43798  97.4376 237.3738 0004426 237.9334 122.1488 15.48940874413036
JY1SAT (JO-97)          
1 43803U 18099AX  26159.15623610  .00013771  00000+0  42915-3 0  9994
2 43803  97.4132 221.9612 0004245 308.5712  51.5149 15.33366005412240
SUOMI-100               
1 43804U 18099AY  26159.10542594  .00013013  00000+0  47520-3 0  9997
2 43804  97.4187 219.5337 0008583 317.3393  42.7179 15.28214389412033
CENTAURI-1              
1 43809U 18099BD  26158.90132890  .00006395  00000+0  33295-3 0  9992
2 43809  97.4222 210.8207 0014071   7.1954 352.9479 15.16273607411093
GLOBAL-2                
1 43812U 18099BG  26159.05441292  .00004345  00000+0  28148-3 0  9996
2 43812  97.3559 195.9477 0006086 171.3075 188.8260 15.08618672410534
SEAHAWK-1               
1 43820U 18099BQ  26159.13356381  .00009440  00000+0  40796-3 0  9992
2 43820  97.3960 211.7579 0007560 352.4742   7.6379 15.22663237411151
SAUDISAT 5A             
1 43831U 18102A   26159.19307462  .00005552  00000+0  20592-3 0  9993
2 43831  97.3070 220.9478 0010357 157.2045 202.9657 15.27955033414302
SAUDISAT 5B             
1 43833U 18102C   26159.21344375  .00005927  00000+0  21787-3 0  9995
2 43833  97.3177 224.0212 0010976 159.8540 200.3136 15.28218511414429
ISAT                    
1 43879U 18111D   26158.75985586  .00085884  00000+0  91745-3 0  9999
2 43879  97.5889  93.2672 0002285  49.0004 311.1452 15.63634562409698
UWE-4                   
1 43880U 18111E   26158.76428060  .00033394  00000+0  69481-3 0  9992
2 43880  97.5856  86.7246 0007278  18.3165 341.8344 15.45534783409326
D-STAR ONE (SPARROW)    
1 43881U 18111F   26159.09859536  .00151746  00000+0  11517-2 0  9994
2 43881  97.6116  99.0929 0004854  99.4138 260.7673 15.71864045409947
JILIN-1 09              
1 43943U 19005B   26159.16393466  .00004462  00000+0  20770-3 0  9993
2 43943  97.4730 254.2045 0003719 112.4758 247.6872 15.20435321407772
JILIN-1 10              
1 43946U 19005E   26159.14119980  .00005388  00000+0  21469-3 0  9995
2 43946  97.4774 257.9467 0006859 318.0849  41.9863 15.25625583407933
EGYPTSAT-A (MISRSAT-A)  
1 44047U 19008A   26159.17228406  .00000876  00000+0  14640-3 0  9998
2 44047  98.0088 224.0584 0001184  88.6244 271.5099 14.72297880391919
EMISAT                  
1 44078U 19018A   26159.20366997  .00000251  00000+0  86896-4 0  9995
2 44078  98.4644 218.0530 0017326 243.4338 116.5077 14.43683363378764
JILIN-1 GAOFEN 3A       
1 44312U 19032C   26159.15516139  .00013194  00000+0  42197-3 0  9996
2 44312  44.9754  46.6379 0006368 252.7216 107.2972 15.32435711386458
WT 1B                   
1 44316U 19032G   26159.17228762  .00010324  00000+0  39227-3 0  9996
2 44316  44.9729 110.1395 0009333 202.5736 157.4737 15.27010462385703
PROX-1                  
1 44339U 19036A   26158.75163262  .00013430  00000+0  13165-2 0  9994
2 44339  23.9933 177.2711 0005354 281.8651  78.1248 14.90390005372067
NPSAT1                  
1 44340U 19036B   26158.98149786  .00005917  00000+0  83373-3 0  9996
2 44340  23.9991 277.7113 0007989 103.5008 256.6378 14.74502276371138
FORMOSAT 7-3            
1 44343U 19036E   26158.93120608  .00005097  00000+0  28683-3 0  9998
2 44343  23.9987 242.2459 0001017 138.1967 221.8614 15.09740932381848
FORMOSAT 7-1            
1 44349U 19036L   26159.11203166  .00003048  00000+0  23604-3 0  9998
2 44349  23.9977  93.5711 0001040  81.4827 278.5792 14.96467702383295
FORMOSAT 7-4            
1 44350U 19036M   26158.33431389  .00002853  00000+0  21931-3 0  9997
2 44350  23.9967 160.9233 0001523  83.3436 276.7238 14.96458618382590
